COMMENT,ORIGINATOR,NORAD_CAT_ID,OBJECT_NAME,OBJECT_TYPE,CLASSIFICATION_TYPE,INTLDES,EPOCH,EPOCH_MICROSECONDS,MEAN_MOTION,ECCENTRICITY,INCLINATION,RA_OF_ASC_NODE,ARG_OF_PERICENTER,MEAN_ANOMALY,EPHEMERIS_TYPE,ELEMENT_SET_NO,REV_AT_EPOCH,BSTAR,MEAN_MOTION_DOT,MEAN_MOTION_DDOT,FILE,TLE_LINE0,TLE_LINE1,TLE_LINE2,OBJECT_ID,OBJECT_NUMBER,SEMIMAJOR_AXIS,PERIOD,APOGEE,PERIGEE,DECAYED
GENERATED VIA SPACETRACK.ORG API,18 SPCS,26998,TIMED,PAYLOAD,U,01055B,7/24/24 22:39,58048,14.91603701,0.000261,74.0702,185.6359,248.6006,111.4898,0,999,22745,0.00028895,0.00002864,0,4396874,0 TIMED,1 26998U 01055B   24206.94377382  .00002864  00000-0  28895-3 0  9997,2 26998  74.0702 185.6359 0002610 248.6006 111.4898 14.91603701227452,2001-055B,26998,6971.072,96.54,594.756,591.117,0
GENERATED VIA SPACETRACK.ORG API,18 SPCS,26998,TIMED,PAYLOAD,U,01055B,7/25/24 6:41,482080,14.91604943,0.0002606,74.0703,184.9647,248.338,111.7525,0,999,22750,0.00027876,0.00002761,0,4398177,0 TIMED,1 26998U 01055B   24207.27912595  .00002761  00000-0  27876-3 0  9999,2 26998  74.0703 184.9647 0002606 248.3380 111.7525 14.91604943227507,2001-055B,26998,6971.068,96.54,594.749,591.116,0
GENERATED VIA SPACETRACK.ORG API,18 SPCS,26998,TIMED,PAYLOAD,U,01055B,7/25/24 22:47,223008,14.91606822,0.0002571,74.0704,183.6222,247.3683,112.7227,0,999,22760,0.00022984,0.0000227,0,4398706,0 TIMED,1 26998U 01055B   24207.94982897  .00002270  00000-0  22984-3 0  9995,2 26998  74.0704 183.6222 0002571 247.3683 112.7227 14.91606822227608,2001-055B,26998,6971.062,96.54,594.719,591.135,0
GENERATED VIA SPACETRACK.ORG API,18 SPCS,26998,TIMED,PAYLOAD,U,01055B,7/26/24 2:00,959616,14.91607345,0.0002569,74.0704,183.3537,247.3048,112.7863,0,999,22776,0.00022762,0.00002248,0,4398930,0 TIMED,1 26998U 01055B   24208.08396944  .00002248  00000-0  22762-3 0  9992,2 26998  74.0704 183.3537 0002569 247.3048 112.7863 14.91607345227760,2001-055B,26998,6971.06,96.54,594.716,591.134,0
GENERATED VIA SPACETRACK.ORG API,18 SPCS,26998,TIMED,PAYLOAD,U,01055B,7/26/24 11:40,104640,14.91610018,0.0002538,74.0703,182.5481,246.9847,113.1068,0,999,22768,0.0002453,0.00002426,0,4400028,0 TIMED,1 26998U 01055B   24208.48639010  .00002426  00000-0  24530-3 0  9993,2 26998  74.0703 182.5481 0002538 246.9847 113.1068 14.91610018227680,2001-055B,26998,6971.052,96.54,594.686,591.148,0
GENERATED VIA SPACETRACK.ORG API,18 SPCS,26998,TIMED,PAYLOAD,U,01055B,7/27/24 2:09,750464,14.91613004,0.000252,74.0704,181.34,246.0141,114.0778,0,999,22791,0.0002422,0.00002395,0,4400844,0 TIMED,1 26998U 01055B   24209.09002026  .00002395  00000-0  24220-3 0  9993,2 26998  74.0704 181.3400 0002520 246.0141 114.0778 14.91613004227910,2001-055B,26998,6971.043,96.54,594.664,591.151,0
GENERATED VIA SPACETRACK.ORG API,18 SPCS,26998,TIMED,PAYLOAD,U,01055B,7/27/24 5:22,450784,14.91613292,0.0002519,74.0704,181.0715,246.0675,114.0244,0,999,22779,0.00023381,0.0000231,0,4401714,0 TIMED,1 26998U 01055B   24209.22416031  .00002310  00000-0  23381-3 0  9997,2 26998  74.0704 181.0715 0002519 246.0675 114.0244 14.91613292227799,2001-055B,26998,6971.042,96.54,594.663,591.151,0
GENERATED VIA SPACETRACK.ORG API,18 SPCS,26998,TIMED,PAYLOAD,U,01055B,7/27/24 23:05,634496,14.91616996,0.0002509,74.0705,179.5948,245.0951,114.9971,0,999,22790,0.00022868,0.00002259,0,4401937,0 TIMED,1 26998U 01055B   24209.96192864  .00002259  00000-0  22868-3 0  9994,2 26998  74.0705 179.5948 0002509 245.0951 114.9971 14.91616996227908,2001-055B,26998,6971.03,96.54,594.644,591.146,0
GENERATED VIA SPACETRACK.ORG API,18 SPCS,26998,TIMED,PAYLOAD,U,01055B,7/28/24 3:54,148256,14.91617315,0.0002518,74.0705,179.1921,244.9447,115.1475,0,999,22807,0.00021697,0.00002141,0,4402096,0 TIMED,1 26998U 01055B   24210.16313829  .00002141  00000-0  21697-3 0  9993,2 26998  74.0705 179.1921 0002518 244.9447 115.1475 14.91617315228070,2001-055B,26998,6971.029,96.54,594.649,591.139,0
GENERATED VIA SPACETRACK.ORG API,18 SPCS,26998,TIMED,PAYLOAD,U,01055B,7/28/24 21:37,160032,14.91621881,0.0002504,74.0706,177.7154,243.9557,116.1368,0,999,22804,0.00024731,0.00002446,0,4404078,0 TIMED,1 26998U 01055B   24210.90090463  .00002446  00000-0  24731-3 0  9991,2 26998  74.0706 177.7154 0002504 243.9557 116.1368 14.91621881228041,2001-055B,26998,6971.015,96.539,594.625,591.134,0
GENERATED VIA SPACETRACK.ORG API,18 SPCS,26998,TIMED,PAYLOAD,U,01055B,7/29/24 4:03,411200,14.91623032,0.0002505,74.0706,177.1785,243.7066,116.386,0,999,22822,0.0002484,0.00002458,0,4404244,0 TIMED,1 26998U 01055B   24211.16918300  .00002458  00000-0  24840-3 0  9993,2 26998  74.0706 177.1785 0002505 243.7066 116.3860 14.91623032228228,2001-055B,26998,6971.011,96.539,594.623,591.13,0
GENERATED VIA SPACETRACK.ORG API,18 SPCS,26998,TIMED,PAYLOAD,U,01055B,7/29/24 10:29,613120,14.91624557,0.000249,74.0706,176.6415,243.3205,116.7723,0,999,22812,0.00025141,0.00002488,0,4405367,0 TIMED,1 26998U 01055B   24211.43746080  .00002488  00000-0  25141-3 0  9995,2 26998  74.0706 176.6415 0002490 243.3205 116.7723 14.91624557228120,2001-055B,26998,6971.007,96.539,594.607,591.136,0
GENERATED VIA SPACETRACK.ORG API,18 SPCS,26998,TIMED,PAYLOAD,U,01055B,7/29/24 21:46,212160,14.91626691,0.0002469,74.0705,175.7018,242.4455,117.6477,0,999,22819,0.00025079,0.00002482,0,4405987,0 TIMED,1 26998U 01055B   24211.90694690  .00002482  00000-0  25079-3 0  9990,2 26998  74.0705 175.7018 0002469 242.4455 117.6477 14.91626691228195,2001-055B,26998,6971,96.539,594.586,591.144,0
GENERATED VIA SPACETRACK.ORG API,18 SPCS,26998,TIMED,PAYLOAD,U,01055B,7/30/24 4:12,383840,14.91628028,0.0002465,74.0706,175.1648,242.0076,118.0858,0,999,22837,0.00025853,0.0000256,0,4406078,0 TIMED,1 26998U 01055B   24212.17522435  .00002560  00000-0  25853-3 0  9994,2 26998  74.0706 175.1648 0002465 242.0076 118.0858 14.91628028228374,2001-055B,26998,6970.996,96.539,594.579,591.142,0
GENERATED VIA SPACETRACK.ORG API,18 SPCS,26998,TIMED,PAYLOAD,U,01055B,7/30/24 10:38,505408,14.9163096,0.0002441,74.0705,174.6278,241.277,118.8167,0,999,22827,0.00030737,0.00003051,0,4407123,0 TIMED,1 26998U 01055B   24212.44350122  .00003051  00000-0  30737-3 0  9999,2 26998  74.0705 174.6278 0002441 241.2770 118.8167 14.91630960228270,2001-055B,26998,6970.987,96.539,594.553,591.15,0
GENERATED VIA SPACETRACK.ORG API,18 SPCS,26998,TIMED,PAYLOAD,U,01055B,7/30/24 23:31,738176,14.91633574,0.0002419,74.0704,173.5538,240.3251,119.7691,0,999,22835,0.00031095,0.00003087,0,4407788,0 TIMED,1 26998U 01055B   24212.98005484  .00003087  00000-0  31095-3 0  9993,2 26998  74.0704 173.5538 0002419 240.3251 119.7691 14.91633574228350,2001-055B,26998,6970.978,96.538,594.53,591.157,0
GENERATED VIA SPACETRACK.ORG API,18 SPCS,26998,TIMED,PAYLOAD,U,01055B,7/31/24 4:21,60128,14.91634342,0.0002421,74.0705,173.1511,240.2403,119.8539,0,999,22852,0.00030801,0.00003058,0,4407999,0 TIMED,1 26998U 01055B   24213.18126227  .00003058  00000-0  30801-3 0  9997,2 26998  74.0705 173.1511 0002421 240.2403 119.8539 14.91634342228524,2001-055B,26998,6970.976,96.538,594.529,591.153,0
GENERATED VIA SPACETRACK.ORG API,18 SPCS,26998,TIMED,PAYLOAD,U,01055B,7/31/24 10:47,129856,14.91634528,0.0002413,74.0705,172.6141,240.1026,119.9917,0,999,22842,0.00027045,0.0000268,0,4408741,0 TIMED,1 26998U 01055B   24213.44953854  .00002680  00000-0  27045-3 0  9996,2 26998  74.0705 172.6141 0002413 240.1026 119.9917 14.91634528228424,2001-055B,26998,6970.975,96.538,594.523,591.158,0
GENERATED VIA SPACETRACK.ORG API,18 SPCS,26998,TIMED,PAYLOAD,U,01055B,7/31/24 22:03,414400,14.91638375,0.0002399,74.0706,171.6744,239.2162,120.8784,0,999,22849,0.00031093,0.00003087,0,4409202,0 TIMED,1 26998U 01055B   24213.91902100  .00003087  00000-0  31093-3 0  9996,2 26998  74.0706 171.6744 0002399 239.2162 120.8784 14.91638375228490,2001-055B,26998,6970.964,96.538,594.501,591.156,0
GENERATED VIA SPACETRACK.ORG API,18 SPCS,26998,TIMED,PAYLOAD,U,01055B,8/1/24 10:56,384512,14.9163998,0.0002391,74.0707,170.6005,238.9574,121.1374,0,999,22871,0.00026853,0.00002661,0,4409608,0 TIMED,1 26998U 01055B   24214.45557158  .00002661  00000-0  26853-3 0  9990,2 26998  74.0707 170.6005 0002391 238.9574 121.1374 14.91639980228712,2001-055B,26998,6970.959,96.538,594.49,591.157,0
GENERATED VIA SPACETRACK.ORG API,18 SPCS,26998,TIMED,PAYLOAD,U,01055B,8/1/24 10:56,384512,14.9163998,0.0002391,74.0707,170.6005,238.9574,121.1374,0,999,22857,0.00026853,0.00002661,0,4410117,0 TIMED,1 26998U 01055B   24214.45557158  .00002661  00000-0  26853-3 0  9990,2 26998  74.0707 170.6005 0002391 238.9574 121.1374 14.91639980228576,2001-055B,26998,6970.959,96.538,594.49,591.157,0
GENERATED VIA SPACETRACK.ORG API,18 SPCS,26998,TIMED,PAYLOAD,U,01055B,8/1/24 22:12,530816,14.91642888,0.000238,74.0708,169.6608,238.0636,122.0315,0,999,22864,0.00027652,0.00002742,0,4410768,0 TIMED,1 26998U 01055B   24214.92505244  .00002742  00000-0  27652-3 0  9999,2 26998  74.0708 169.6608 0002380 238.0636 122.0315 14.91642888228646,2001-055B,26998,6970.949,96.538,594.474,591.155,0
GENERATED VIA SPACETRACK.ORG API,18 SPCS,26998,TIMED,PAYLOAD,U,01055B,8/2/24 14:17,795168,14.91646806,0.0002367,74.071,168.3184,237.0656,123.03,0,999,22874,0.00029346,0.00002912,0,4412141,0 TIMED,1 26998U 01055B   24215.59573837  .00002912  00000-0  29346-3 0  9997,2 26998  74.0710 168.3184 0002367 237.0656 123.0300 14.91646806228740,2001-055B,26998,6970.937,96.538,594.452,591.152,0
GENERATED VIA SPACETRACK.ORG API,18 SPCS,26998,TIMED,PAYLOAD,U,01055B,8/2/24 20:44,619520,14.91648836,0.0002365,74.071,167.7815,236.6613,123.4343,0,999,22892,0.00030323,0.00003011,0,4412241,0 TIMED,1 26998U 01055B   24215.86401180  .00003011  00000-0  30323-3 0  9996,2 26998  74.0710 167.7815 0002365 236.6613 123.4343 14.91648836228926,2001-055B,26998,6970.931,96.537,594.445,591.147,0
